OBJECT_NAME,OBJECT_ID,EPOCH,MEAN_MOTION,ECCENTRICITY,INCLINATION,RA_OF_ASC_NODE,ARG_OF_PERICENTER,MEAN_ANOMALY,EPHEMERIS_TYPE,CLASSIFICATION_TYPE,NORAD_CAT_ID,ELEMENT_SET_NO,REV_AT_EPOCH,BSTAR,MEAN_MOTION_DOT,MEAN_MOTION_DDOT
POLYITAN-1,2014-033AJ,2026-07-19T12:58:50.635776,15.34312602,.0007515,98.0935,229.8891,51.2798,308.9114,0,U,40042,999,65855,.30475E-3,.10044E-3,0
TIGRISAT,2014-033AK,2026-07-19T20:35:57.590016,14.85256969,.0048241,97.7872,350.1303,328.8073,31.0280,0,U,40043,999,65047,.91582E-4,.746E-5,0
AEROCUBE 6A,2014-033AM,2026-07-19T09:57:19.939968,14.98371075,.00361133,97.7266,7.0301,266.3491,93.3602,0,U,40045,999,65144,.28084923E-3,.3331E-4,0
AEROCUBE 6B,2014-033AN,2026-07-19T09:15:34.139520,14.99819606,.0038159,97.7208,6.8556,255.3149,104.3843,0,U,40046,999,65158,.2069966E-3,.2538E-4,0
CANX-4,2014-034C,2026-07-19T05:42:26.347680,14.81314925,.0011369,98.3077,76.7214,268.2732,91.7177,0,U,40055,999,64927,.56964472E-4,.387E-5,0
CANX-5,2014-034D,2026-07-19T05:39:38.620224,14.81332261,.00113728,98.3080,76.7649,268.5748,91.4161,0,U,40056,999,64008,.56525204E-4,.384E-5,0
UKUBE-1,2014-037F,2026-07-19T18:08:07.905120,15.13990479,.000318,98.4250,207.4625,80.2110,279.9478,0,U,40074,999,65348,.24773E-3,.4417E-4,0
BRITE-PL2 (HEWELIUSZ),2014-049B,2026-07-19T18:36:26.620704,14.94693226,.0013872,97.9121,313.0328,7.3267,352.8153,0,U,40119,999,64631,.73988E-4,.744E-5,0
AEROCUBE 5C,2015-058B,2026-07-19T21:23:10.056768,14.91594754,.0132674,64.7652,160.8369,50.6691,310.6092,0,U,40965,999,37053,.1718E-3,.1865E-4,0
AEROCUBE 7,2015-058C,2026-07-19T11:00:57.896352,14.95938135,.01223523,64.7617,143.7158,49.1341,312.0299,0,U,40966,999,37078,.22241947E-3,.272E-4,0
FOX-1A (AO-85),2015-058D,2026-07-19T08:17:48.771168,14.91103340,.01327083,64.7726,179.0327,44.2393,316.9236,0,U,40967,999,11836,.15936763E-3,.1693E-4,0
SINOD-D 1,2015-058E,2026-07-19T07:11:12.969024,14.96111905,.01214206,64.7741,158.3324,40.6040,320.4051,0,U,40968,999,12146,.22960319E-3,.2821E-4,0
SNAP-3 ALICE,2015-058G,2026-07-19T20:13:47.659008,15.68116452,.0025696,64.7501,350.3405,345.4772,14.5636,0,U,40970,999,12199,.8327E-3,.95788E-3,0
LMRST-SAT,2015-058H,2026-07-19T15:28:22.713312,14.90718904,.0134259,64.7734,174.5035,46.1250,315.0858,0,U,40971,999,11839,.15084E-3,.1581E-4,0
SNAP-3 EDDIE,2015-058J,2026-07-19T19:21:02.160000,15.69580626,.0026692,64.7409,340.9392,347.9211,12.1296,0,U,40972,999,12413,.84605E-3,.103668E-2,0
PROPCUBE 3,2015-058K,2026-07-19T20:49:37.721280,14.94439524,.0126142,64.7679,150.4138,47.2292,313.9349,0,U,40973,999,11968,.21179E-3,.2497E-4,0
BISONSAT,2015-058L,2026-07-19T19:19:50.888640,15.17003962,.0082521,64.7581,68.1121,33.9092,326.7268,0,U,40974,999,12056,.34546E-3,.7278E-4,0
SNAP-3 JIMI,2015-058M,2026-07-19T04:55:27.186528,15.02642517,.0108163,64.7645,118.4420,42.7825,318.1647,0,U,40975,999,11903,.26718886E-3,.3866E-4,0
PROPCUBE 1 (FLORA),2015-058N,2026-07-19T16:43:09.373728,14.89341537,.0132825,64.7717,194.4693,48.3750,312.8648,0,U,40976,999,12110,.13568E-3,.1344E-4,0
SINOD-D 3,2015-058P,2026-07-19T07:15:23.119488,14.94193569,.01213987,64.7711,175.5179,45.5581,315.5386,0,U,40977,999,11955,.20181872E-3,.2326E-4,0
RAVAN,2016-067B,2026-07-19T15:24:46.047168,15.57780497,.0002829,97.9827,94.0397,196.2712,163.8452,0,U,41849,999,53274,.4531E-3,.3364E-3,0
CELTEE 1,2016-067C,2026-07-19T14:23:06.146880,15.19964565,.0002435,98.0629,69.3765,104.1559,255.9945,0,U,41850,999,53080,.12003E-3,.2504E-4,0
OPTICUBE 04,2016-067D,2026-07-19T13:20:02.989824,15.09781432,.0015837,98.0672,54.5257,13.7653,346.4004,0,U,41851,999,53005,.66002E-4,.997E-5,0
AEROCUBE 8D,2016-067E,2026-07-19T04:24:45.166176,15.24801432,.00043378,98.0634,72.7915,46.8473,313.3125,0,U,41852,999,53094,.15481485E-3,.3758E-4,0
AEROCUBE 8C,2016-067F,2026-07-19T20:37:55.456032,15.25060798,.0003797,98.0512,70.7052,322.1371,37.9598,0,U,41853,999,53104,.16115E-3,.3946E-4,0
CORVUS BC2,2017-042X,2026-07-19T09:52:15.383424,15.06467590,.00130162,97.4095,0.5175,8.6130,351.5319,0,U,42846,999,49191,.92685383E-4,.131E-4,0
CORVUS BC1,2017-042Y,2026-07-19T09:39:24.004224,15.06633122,.00112255,97.4127,1.3439,344.9562,15.1331,0,U,42847,999,49194,.12561482E-3,.1804E-4,0
MAKERSAT 0,2017-073D,2026-07-18T14:02:09.304224,15.33085965,.0105621,97.4572,82.3624,160.2361,200.3022,0,U,43016,999,47127,.27996E-3,.10616E-3,0
SIRION PATHFINDER-2,2018-099B,2026-07-19T16:25:33.905280,15.14797648,.0008948,97.4232,248.9716,175.8572,184.2736,0,U,43759,999,41754,.13429E-3,.243E-4,0
CORVUS BC4,2018-099K,2026-07-19T20:49:23.145600,15.12721407,.0006744,97.4048,242.8928,240.7409,119.3148,0,U,43767,999,41734,.14002E-3,.239E-4,0
